HULIANWANG DIGUI-120    
1 67060U 25295B   25349.71694909  .00000000  00000+0  66896-4 0  9998
2 67060  50.0050 359.6709 0013223 257.2650 102.6786 14.25706335   543
HULIANWANG DIGUI-121    
1 67061U 25295C   25349.71692468 -.00000001  00000+0  66638-4 0  9993
2 67061  50.0012 359.6606 0013268 256.3366 103.6071 14.25729079   549
HULIANWANG DIGUI-122    
1 67062U 25295D   25354.62316023  .00000062  00000+0  93027-4 0  9998
2 67062  50.0054 338.9500 0013165 281.0478  78.8955 14.25755798  1243
HULIANWANG DIGUI-123    
1 67063U 25295E   25354.55227449  .00000064  00000+0  93596-4 0  9997
2 67063  50.0061 339.2442 0012476 279.9818  79.9688 14.25888585  1234
HULIANWANG DIGUI-124    
1 67064U 25295F   25354.62199229 -.00000591  00000+0 -17950-3 0  9996
2 67064  50.0035 338.9325 0012087 274.9622  84.9912 14.25949082  1245
HULIANWANG DIGUI-125    
1 67065U 25295G   25354.62196403  .00000045  00000+0  85530-4 0  9990
2 67065  50.0011 338.9308 0012271 280.9433  79.0100 14.25954222  1249
HULIANWANG DIGUI-126    
1 67066U 25295H   25354.62108225  .00000042  00000+0  84158-4 0  9998
2 67066  50.0014 338.9253 0011435 278.0037  81.9579 14.26097210  1249
HULIANWANG DIGUI-127    
1 67067U 25295J   25354.41005077 -.00000802  00000+0 -26559-3 0  9993
2 67067  50.0053 339.8165 0010880 280.9688  79.0002 14.26250847  1215
CZ-12 R/B               
1 67068U 25295K   25354.39290682 -.00000138  00000+0  91418-5 0  9998
2 67068  49.9943 339.0702 0056863 163.3207 196.9600 14.41128985  1219
XIWANG-5 02             
1 67069U 25296A   25354.60343361  .00007963  00000+0  40608-3 0  9992
2 67069  41.3526  56.7181 0014491  81.4219 278.8243 15.16822832  1152
DEAR-5                  
1 67070U 25296B   25354.60263624  .00003260  00000+0  17212-3 0  9998
2 67070  41.3553  56.7140 0016088  82.8141 277.4509 15.16880771  1147
KZ-11 R/B               
1 67071U 25296C   25354.56665690  .06524805  65559-5  50215-3 0  9998
2 67071  41.3222  59.4281 0581991   8.2061 352.7804 15.10636457  1116
