CCSDS_OMM_VERS = 2.0
CREATION_DATE  = 
ORIGINATOR     = 

OBJECT_NAME    = HULIANWANG DIGUI-120
OBJECT_ID      = 2025-295B
CENTER_NAME    = EARTH
REF_FRAME      = TEME
TIME_SYSTEM    = UTC
MEAN_ELEMENT_THEORY = SGP/SGP4

EPOCH          = 2025-12-15T17:12:24.401376
MEAN_MOTION    = 14.25706335
ECCENTRICITY   = .00132237
INCLINATION    = 50.0050
RA_OF_ASC_NODE = 359.6709
ARG_OF_PERICENTER = 257.2650
MEAN_ANOMALY   = 102.6786

EPHEMERIS_TYPE = 0
CLASSIFICATION_TYPE = U
NORAD_CAT_ID   = 67060
ELEMENT_SET_NO = 999
REV_AT_EPOCH   = 54
BSTAR          = .66896441E-4
MEAN_MOTION_DOT = 0
MEAN_MOTION_DDOT = 0

CCSDS_OMM_VERS = 2.0
CREATION_DATE  = 
ORIGINATOR     = 

OBJECT_NAME    = HULIANWANG DIGUI-121
OBJECT_ID      = 2025-295C
CENTER_NAME    = EARTH
REF_FRAME      = TEME
TIME_SYSTEM    = UTC
MEAN_ELEMENT_THEORY = SGP/SGP4

EPOCH          = 2025-12-15T17:12:22.292352
MEAN_MOTION    = 14.25729079
ECCENTRICITY   = .00132682
INCLINATION    = 50.0012
RA_OF_ASC_NODE = 359.6606
ARG_OF_PERICENTER = 256.3366
MEAN_ANOMALY   = 103.6071

EPHEMERIS_TYPE = 0
CLASSIFICATION_TYPE = U
NORAD_CAT_ID   = 67061
ELEMENT_SET_NO = 999
REV_AT_EPOCH   = 54
BSTAR          = .66638352E-4
MEAN_MOTION_DOT = -.1E-7
MEAN_MOTION_DDOT = 0

CCSDS_OMM_VERS = 2.0
CREATION_DATE  = 
ORIGINATOR     = 

OBJECT_NAME    = HULIANWANG DIGUI-122
OBJECT_ID      = 2025-295D
CENTER_NAME    = EARTH
REF_FRAME      = TEME
TIME_SYSTEM    = UTC
MEAN_ELEMENT_THEORY = SGP/SGP4

EPOCH          = 2025-12-20T14:57:21.043872
MEAN_MOTION    = 14.25755798
ECCENTRICITY   = .00131651
INCLINATION    = 50.0054
RA_OF_ASC_NODE = 338.9500
ARG_OF_PERICENTER = 281.0478
MEAN_ANOMALY   = 78.8955

EPHEMERIS_TYPE = 0
CLASSIFICATION_TYPE = U
NORAD_CAT_ID   = 67062
ELEMENT_SET_NO = 999
REV_AT_EPOCH   = 124
BSTAR          = .9302727E-4
MEAN_MOTION_DOT = .62E-6
MEAN_MOTION_DDOT = 0

CCSDS_OMM_VERS = 2.0
CREATION_DATE  = 
ORIGINATOR     = 

OBJECT_NAME    = HULIANWANG DIGUI-123
OBJECT_ID      = 2025-295E
CENTER_NAME    = EARTH
REF_FRAME      = TEME
TIME_SYSTEM    = UTC
MEAN_ELEMENT_THEORY = SGP/SGP4

EPOCH          = 2025-12-20T13:15:16.515936
MEAN_MOTION    = 14.25888585
ECCENTRICITY   = .00124769
INCLINATION    = 50.0061
RA_OF_ASC_NODE = 339.2442
ARG_OF_PERICENTER = 279.9818
MEAN_ANOMALY   = 79.9688

EPHEMERIS_TYPE = 0
CLASSIFICATION_TYPE = U
NORAD_CAT_ID   = 67063
ELEMENT_SET_NO = 999
REV_AT_EPOCH   = 123
BSTAR          = .93595584E-4
MEAN_MOTION_DOT = .64E-6
MEAN_MOTION_DDOT = 0

CCSDS_OMM_VERS = 2.0
CREATION_DATE  = 
ORIGINATOR     = 

OBJECT_NAME    = HULIANWANG DIGUI-124
OBJECT_ID      = 2025-295F
CENTER_NAME    = EARTH
REF_FRAME      = TEME
TIME_SYSTEM    = UTC
MEAN_ELEMENT_THEORY = SGP/SGP4

EPOCH          = 2025-12-20T14:55:40.133856
MEAN_MOTION    = 14.25949082
ECCENTRICITY   = .00120879
INCLINATION    = 50.0035
RA_OF_ASC_NODE = 338.9325
ARG_OF_PERICENTER = 274.9622
MEAN_ANOMALY   = 84.9912

EPHEMERIS_TYPE = 0
CLASSIFICATION_TYPE = U
NORAD_CAT_ID   = 67064
ELEMENT_SET_NO = 999
REV_AT_EPOCH   = 124
BSTAR          = -.17950155E-3
MEAN_MOTION_DOT = -.591E-5
MEAN_MOTION_DDOT = 0

CCSDS_OMM_VERS = 2.0
CREATION_DATE  = 
ORIGINATOR     = 

OBJECT_NAME    = HULIANWANG DIGUI-125
OBJECT_ID      = 2025-295G
CENTER_NAME    = EARTH
REF_FRAME      = TEME
TIME_SYSTEM    = UTC
MEAN_ELEMENT_THEORY = SGP/SGP4

EPOCH          = 2025-12-20T14:55:37.692192
MEAN_MOTION    = 14.25954222
ECCENTRICITY   = .00122713
INCLINATION    = 50.0011
RA_OF_ASC_NODE = 338.9308
ARG_OF_PERICENTER = 280.9433
MEAN_ANOMALY   = 79.0100

EPHEMERIS_TYPE = 0
CLASSIFICATION_TYPE = U
NORAD_CAT_ID   = 67065
ELEMENT_SET_NO = 999
REV_AT_EPOCH   = 124
BSTAR          = .85529881E-4
MEAN_MOTION_DOT = .45E-6
MEAN_MOTION_DDOT = 0

CCSDS_OMM_VERS = 2.0
CREATION_DATE  = 
ORIGINATOR     = 

OBJECT_NAME    = HULIANWANG DIGUI-126
OBJECT_ID      = 2025-295H
CENTER_NAME    = EARTH
REF_FRAME      = TEME
TIME_SYSTEM    = UTC
MEAN_ELEMENT_THEORY = SGP/SGP4

EPOCH          = 2025-12-20T14:54:21.506400
MEAN_MOTION    = 14.26097210
ECCENTRICITY   = .00114356
INCLINATION    = 50.0014
RA_OF_ASC_NODE = 338.9253
ARG_OF_PERICENTER = 278.0037
MEAN_ANOMALY   = 81.9579

EPHEMERIS_TYPE = 0
CLASSIFICATION_TYPE = U
NORAD_CAT_ID   = 67066
ELEMENT_SET_NO = 999
REV_AT_EPOCH   = 124
BSTAR          = .84158494E-4
MEAN_MOTION_DOT = .42E-6
MEAN_MOTION_DDOT = 0

CCSDS_OMM_VERS = 2.0
CREATION_DATE  = 
ORIGINATOR     = 

OBJECT_NAME    = HULIANWANG DIGUI-127
OBJECT_ID      = 2025-295J
CENTER_NAME    = EARTH
REF_FRAME      = TEME
TIME_SYSTEM    = UTC
MEAN_ELEMENT_THEORY = SGP/SGP4

EPOCH          = 2025-12-20T09:50:28.386528
MEAN_MOTION    = 14.26250847
ECCENTRICITY   = .00108807
INCLINATION    = 50.0053
RA_OF_ASC_NODE = 339.8165
ARG_OF_PERICENTER = 280.9688
MEAN_ANOMALY   = 79.0002

EPHEMERIS_TYPE = 0
CLASSIFICATION_TYPE = U
NORAD_CAT_ID   = 67067
ELEMENT_SET_NO = 999
REV_AT_EPOCH   = 121
BSTAR          = -.26559094E-3
MEAN_MOTION_DOT = -.802E-5
MEAN_MOTION_DDOT = 0

CCSDS_OMM_VERS = 2.0
CREATION_DATE  = 
ORIGINATOR     = 

OBJECT_NAME    = CZ-12 R/B
OBJECT_ID      = 2025-295K
CENTER_NAME    = EARTH
REF_FRAME      = TEME
TIME_SYSTEM    = UTC
MEAN_ELEMENT_THEORY = SGP/SGP4

EPOCH          = 2025-12-20T09:25:47.149248
MEAN_MOTION    = 14.41128985
ECCENTRICITY   = .00568631
INCLINATION    = 49.9943
RA_OF_ASC_NODE = 339.0702
ARG_OF_PERICENTER = 163.3207
MEAN_ANOMALY   = 196.9600

EPHEMERIS_TYPE = 0
CLASSIFICATION_TYPE = U
NORAD_CAT_ID   = 67068
ELEMENT_SET_NO = 999
REV_AT_EPOCH   = 121
BSTAR          = .9141767E-5
MEAN_MOTION_DOT = -.138E-5
MEAN_MOTION_DDOT = 0

CCSDS_OMM_VERS = 2.0
CREATION_DATE  = 
ORIGINATOR     = 

OBJECT_NAME    = XIWANG-5 02
OBJECT_ID      = 2025-296A
CENTER_NAME    = EARTH
REF_FRAME      = TEME
TIME_SYSTEM    = UTC
MEAN_ELEMENT_THEORY = SGP/SGP4

EPOCH          = 2025-12-20T14:28:56.663904
MEAN_MOTION    = 15.16822832
ECCENTRICITY   = .00144915
INCLINATION    = 41.3526
RA_OF_ASC_NODE = 56.7181
ARG_OF_PERICENTER = 81.4219
MEAN_ANOMALY   = 278.8243

EPHEMERIS_TYPE = 0
CLASSIFICATION_TYPE = U
NORAD_CAT_ID   = 67069
ELEMENT_SET_NO = 999
REV_AT_EPOCH   = 115
BSTAR          = .40608144E-3
MEAN_MOTION_DOT = .7963E-4
MEAN_MOTION_DDOT = 0

CCSDS_OMM_VERS = 2.0
CREATION_DATE  = 
ORIGINATOR     = 

OBJECT_NAME    = DEAR-5
OBJECT_ID      = 2025-296B
CENTER_NAME    = EARTH
REF_FRAME      = TEME
TIME_SYSTEM    = UTC
MEAN_ELEMENT_THEORY = SGP/SGP4

EPOCH          = 2025-12-20T14:27:47.771136
MEAN_MOTION    = 15.16880771
ECCENTRICITY   = .00160883
INCLINATION    = 41.3553
RA_OF_ASC_NODE = 56.7140
ARG_OF_PERICENTER = 82.8141
MEAN_ANOMALY   = 277.4509

EPHEMERIS_TYPE = 0
CLASSIFICATION_TYPE = U
NORAD_CAT_ID   = 67070
ELEMENT_SET_NO = 999
REV_AT_EPOCH   = 114
BSTAR          = .1721205E-3
MEAN_MOTION_DOT = .326E-4
MEAN_MOTION_DDOT = 0

CCSDS_OMM_VERS = 2.0
CREATION_DATE  = 
ORIGINATOR     = 

OBJECT_NAME    = KZ-11 R/B
OBJECT_ID      = 2025-296C
CENTER_NAME    = EARTH
REF_FRAME      = TEME
TIME_SYSTEM    = UTC
MEAN_ELEMENT_THEORY = SGP/SGP4

EPOCH          = 2025-12-20T13:35:59.156160
MEAN_MOTION    = 15.10636457
ECCENTRICITY   = .0581991
INCLINATION    = 41.3222
RA_OF_ASC_NODE = 59.4281
ARG_OF_PERICENTER = 8.2061
MEAN_ANOMALY   = 352.7804

EPHEMERIS_TYPE = 0
CLASSIFICATION_TYPE = U
NORAD_CAT_ID   = 67071
ELEMENT_SET_NO = 999
REV_AT_EPOCH   = 111
BSTAR          = .50214993E-3
MEAN_MOTION_DOT = .6524805E-1
MEAN_MOTION_DDOT = .6555933E-5

